      2.10          N: GNSS NAV DATA                        RINEX VERSION / TYPE
fic2rin                                 08/13/2024 00:59:01 PGM / RUN BY / DATE
                                                            END OF HEADER
6  24  8 12  1 59 44.0  .104097649455D-03 -.242152964347D-10  .000000000000D+00
     .100000000000D+02 -.463437500000D+02  .368586781690D-08 -.302415210641D+01
    -.242888927460D-05  .294742791448D-02  .656396150589D-05  .515367461777D+04
     .935840000000D+05  .987201929092D-07  .659977579492D+00 -.167638063431D-07
     .989751934707D+00  .270625000000D+03 -.729236020042D+00 -.772103589785D-08
    -.166792661870D-09  .100000000000D+01  .232700000000D+04  .000000000000D+00
     .240000000000D+01  .000000000000D+00  .372529029846D-08  .100000000000D+02
     .864000000000D+05  .400000000000D+01
13 24  8 12 15 59 44.0  .670375302434D-03  .227373675443D-11  .000000000000D+00
     .660000000000D+02 -.232812500000D+02  .455054669139D-08 -.309813712848D+00
    -.117532908916D-05  .846607994754D-02  .684894621372D-05  .515369237328D+04
     .143984000000D+06 -.260770320892D-07  .288081057122D+01  .819563865662D-07
     .972245659260D+00  .249812500000D+03  .945936198200D+00 -.808390815579D-08
    -.364300888880D-10  .100000000000D+01  .232700000000D+04  .000000000000D+00
     .240000000000D+01  .000000000000D+00 -.111758708954D-07  .660000000000D+02
     .136800000000D+06  .400000000000D+01
3  24  8 12 16  0  0.0  .497193075716D-03  .150066625793D-10  .000000000000D+00
     .120000000000D+02 -.421875000000D+02  .395659337942D-08  .288595624366D+01
    -.225938856602D-05  .571984762792D-02  .828877091408D-05  .515368250847D+04
     .144000000000D+06 -.223517417908D-07  .169586312298D+01 -.135973095894D-06
     .985304148798D+00  .228343750000D+03  .114383133541D+01 -.766674792225D-08
     .196793911542D-09  .100000000000D+01  .232700000000D+04  .000000000000D+00
     .240000000000D+01  .000000000000D+00  .139698386192D-08  .120000000000D+02
     .136800000000D+06  .400000000000D+01
2  24  8 12 16  0  0.0 -.380377285182D-03  .761701812735D-11  .000000000000D+00
     .116000000000D+03 -.391875000000D+02  .457090468224D-08  .161254852958D+00
    -.221282243729D-05  .160429199459D-01  .572763383389D-05  .515369248772D+04
     .144000000000D+06 -.122934579849D-06  .559592253538D+00 -.169500708580D-06
     .967282924725D+00  .275406250000D+03 -.114805889655D+01 -.846642408912D-08
    -.360729311538D-10  .100000000000D+01  .232700000000D+04  .000000000000D+00
     .240000000000D+01  .000000000000D+00 -.176951289177D-07  .116000000000D+03
     .136800000000D+06  .400000000000D+01
1  24  8 12 16  0  0.0  .223206356168D-03 -.829913915368D-11  .000000000000D+00
     .620000000000D+02  .586562500000D+02  .581809949005D-08  .141239073794D+01
     .300444662571D-05  .133552524494D-01  .816024839878D-05  .515360865974D+04
     .144000000000D+06 -.244006514549D-06 -.143436413175D+01 -.484287738800D-07
     .953624643163D+00  .220468750000D+03  .103396654022D+01 -.819248410699D-08
    -.107504477993D-09  .100000000000D+01  .232700000000D+04  .000000000000D+00
     .240000000000D+01  .630000000000D+02 -.195577740669D-07  .620000000000D+02
     .136800000000D+06  .400000000000D+01
6  24  8 12 16  0  0.0  .102875288576D-03 -.242152964347D-10  .000000000000D+00
     .310000000000D+02 -.491250000000D+02  .400016662300D-08 -.195340390993D+01
    -.245310366154D-05  .294727052096D-02  .572949647903D-05  .515367501259D+04
     .144000000000D+06 -.782310962677D-07  .659582075201D+00  .372529029846D-07
     .989743215715D+00  .287781250000D+03 -.729608199567D+00 -.787568519676D-08
    -.242867259253D-10  .100000000000D+01  .232700000000D+04  .000000000000D+00
     .240000000000D+01  .000000000000D+00  .372529029846D-08  .310000000000D+02
     .136800000000D+06  .400000000000D+01
5  24  8 12 16  0  0.0 -.182965770364D-03 -.125055521494D-11  .000000000000D+00
     .850000000000D+02 -.463125000000D+02  .441375527920D-08  .311028520021D+00
    -.218115746975D-05  .593766313978D-02  .768154859543D-05  .515365482330D+04
     .144000000000D+06  .111758708954D-07  .164349515129D+01  .372529029846D-07
     .972228332458D+00  .238875000000D+03  .130819766444D+01 -.804212070089D-08
     .153577825704D-09  .100000000000D+01  .232700000000D+04  .000000000000D+00
     .240000000000D+01  .000000000000D+00 -.107102096081D-07  .850000000000D+02
     .136800000000D+06  .400000000000D+01
7  24  8 12 16  0  0.0 -.529792159796D-04  .602540239925D-11  .000000000000D+00
     .200000000000D+01 -.375000000000D+00  .458876256895D-08 -.285803950523D+01
    -.115483999252D-06  .186947546899D-01  .854767858982D-05  .515361806107D+04
     .144000000000D+06  .206753611565D-06 -.249729384448D+01 -.189989805222D-06
     .950436991481D+00  .205093750000D+03 -.210522933422D+01 -.768246286256D-08
    -.210723063176D-09  .100000000000D+01  .232700000000D+04  .000000000000D+00
     .340000000000D+01  .000000000000D+00 -.111758708954D-07  .258000000000D+03
     .136800000000D+06  .400000000000D+01
4  24  8 12 16  0  0.0  .422763638198D-03  .750333128963D-11  .000000000000D+00
     .950000000000D+02 -.275625000000D+02  .457376194412D-08 -.344239535576D+00
    -.165216624737D-05  .294673745520D-02  .703707337379D-05  .515371241760D+04
     .144000000000D+06  .502914190292D-07  .277388885853D+01  .279396772385D-07
     .965769919257D+00  .246406250000D+03 -.298818130760D+01 -.800033324599D-08
    -.335728270144D-10  .100000000000D+01  .232700000000D+04  .000000000000D+00
     .240000000000D+01  .000000000000D+00 -.465661287308D-08  .863000000000D+03
     .136800000000D+06  .400000000000D+01
30 24  8 12 16  0  0.0 -.341227743775D-03  .682121026330D-11  .000000000000D+00
     .300000000000D+01 -.290625000000D+01  .504449583779D-08 -.300805309525D+01
    -.249594449997D-06  .717867759522D-02  .824593007565D-05  .515359667397D+04
     .144000000000D+06  .167638063431D-07 -.249784634475D+01 -.875443220139D-07
     .935586953946D+00  .204937500000D+03 -.244577265074D+01 -.807533637017D-08
    -.269654089318D-09  .100000000000D+01  .232700000000D+04  .000000000000D+00
     .240000000000D+01  .000000000000D+00  .419095158577D-08  .300000000000D+01
     .136800000000D+06  .400000000000D+01
17 24  8 12 16  0  0.0  .656385440379D-03 -.932232069317D-11  .000000000000D+00
     .160000000000D+02  .445937500000D+02  .449590155806D-08 -.759300506542D-01
     .206939876080D-05  .134670907864D-01  .438466668129D-05  .515377815247D+04
     .144000000000D+06 -.244006514549D-06 -.342433062889D+00 -.132247805595D-06
     .967960558620D+00  .298562500000D+03 -.131113473142D+01 -.841570769086D-08
     .950039572962D-10  .100000000000D+01  .232700000000D+04  .000000000000D+00
     .240000000000D+01  .000000000000D+00 -.111758708954D-07  .160000000000D+02
     .136800000000D+06  .400000000000D+01
9  24  8 12 16  0  0.0  .311311334372D-03  .155750967679D-10  .000000000000D+00
     .390000000000D+02 -.255625000000D+02  .472626829662D-08  .473944108303D+00
    -.143609941006D-05  .298243795987D-02  .716932117939D-05  .515361175537D+04
     .144000000000D+06 -.298023223877D-07  .271378633509D+01 -.279396772385D-07
     .959402976471D+00  .241781250000D+03  .197262813542D+01 -.808283668259D-08
     .503592405216D-10  .100000000000D+01  .232700000000D+04  .000000000000D+00
     .240000000000D+01  .000000000000D+00  .931322574615D-09  .390000000000D+02
     .136800000000D+06  .400000000000D+01
22 24  8 12 16  0  0.0 -.504618510604D-04 -.420641299570D-11  .000000000000D+00
     .530000000000D+02  .724375000000D+02  .446304304651D-08  .479435346864D+00
     .368431210518D-05  .141979635227D-01  .850483775139D-05  .515369588470D+04
     .144000000000D+06 -.521540641785D-07 -.136012376611D+01 -.204890966415D-06
     .960360267637D+00  .216343750000D+03 -.112530735467D+01 -.823320008869D-08
    -.685742849656D-10  .100000000000D+01  .232700000000D+04  .000000000000D+00
     .240000000000D+01  .000000000000D+00 -.111758708954D-07  .530000000000D+02
     .136800000000D+06  .400000000000D+01
24 24  8 12 16  0  0.0 -.486046541482D-03 -.682121026330D-12  .000000000000D+00
     .400000000000D+02 -.143750000000D+02  .504521015325D-08 -.188693253313D+01
    -.722706317902D-06  .156698992942D-01  .750645995140D-05  .515369944572D+04
     .144000000000D+06  .253319740295D-06 -.259566153284D+01 -.165775418282D-06
     .934217605570D+00  .218937500000D+03  .995984882974D+00 -.799426156451D-08
    -.195365280605D-09  .100000000000D+01  .232700000000D+04  .000000000000D+00
     .240000000000D+01  .000000000000D+00  .232830643654D-08  .400000000000D+02
     .136800000000D+06  .400000000000D+01
12 24  8 12 16  0  0.0 -.529803335667D-03 -.295585778076D-11  .000000000000D+00
     .850000000000D+02  .657812500000D+02  .420767526656D-08  .269519067136D+01
     .346079468727D-05  .865735486150D-02  .824220478535D-05  .515361277962D+04
     .144000000000D+06  .726431608200D-07 -.138120193599D+01  .484287738800D-07
     .961585204055D+00  .218187500000D+03  .145943358834D+01 -.769639201419D-08
    -.167864135072D-10  .100000000000D+01  .232700000000D+04  .000000000000D+00
     .340000000000D+01  .000000000000D+00 -.125728547573D-07  .850000000000D+02
     .136800000000D+06  .400000000000D+01
27 24  8 12 16  0  0.0 -.329124741256D-04 -.568434188608D-12  .000000000000D+00
     .360000000000D+02  .384062500000D+02  .463197865479D-08  .355608350344D-01
     .209920108318D-05  .125518917339D-01  .453181564808D-05  .515368323326D+04
     .144000000000D+06  .577419996262D-07 -.411206051628D+00  .210478901863D-06
     .961170447761D+00  .296468750000D+03  .797398664729D+00 -.840606443204D-08
     .435732435719D-10  .100000000000D+01  .232700000000D+04  .000000000000D+00
     .240000000000D+01  .000000000000D+00  .186264514923D-08  .360000000000D+02
     .136800000000D+06  .400000000000D+01
